start=new Date('2021-10-08T00:00:00.000Z').valueOf();
sats=[{"BSTAR":"-0.00001371500000","COUNTRY_CODE":"US","EPHEMERIS_TYPE":"0","GP_ID":"186510715","SITE":"AFETR","RA_OF_ASC_NODE":"61.8345","RCS_SIZE":"LARGE","OBJECT_TYPE":"PAYLOAD","NORAD_CAT_ID":"46356","ELEMENT_SET_NO":"999","PERIAPSIS":"546.042","PERIOD":"95.592","SEMIMAJOR_AXIS":"6925.350","INCLINATION":"53.0561","MEAN_MOTION":"15.06399372","CENTER_NAME":"EARTH","TLE_LINE2":"2 46356  53.0561  61.8345 0001694  96.0690 264.0493 15.06399372 61058","MEAN_ELEMENT_THEORY":"SGP4","LAUNCH_DATE":"2020-09-03","CLASSIFICATION_TYPE":"U","MEAN_MOTION_DDOT":"0.0000000000000","EPOCH":"2021-10-07T18:17:21.840576","TIME_SYSTEM":"UTC","REV_AT_EPOCH":"6105","TLE_LINE1":"1 46356U 20062AH  21280.76205834 -.00000486  00000-0 -13715-4 0  9993","ARG_OF_PERICENTER":"96.0690","FILE":"3150302","REF_FRAME":"TEME","MEAN_MOTION_DOT":"-0.00000486","DECAY_DATE":null,"OBJECT_ID":"2020-062AH","APOAPSIS":"548.389","ECCENTRICITY":"0.00016940","MEAN_ANOMALY":"264.0493","OBJECT_NAME":"STARLINK-1665"},{"ECCENTRICITY":"0.00012120","MEAN_ANOMALY":"256.7903","OBJECT_NAME":"STARLINK-1666","OBJECT_ID":"2020-062AJ","APOAPSIS":"548.051","TLE_LINE1":"1 46357U 20062AJ  21280.82655598  .00002134  00000-0  16209-3 0  9997","ARG_OF_PERICENTER":"103.3221","FILE":"3150302","REF_FRAME":"TEME","MEAN_MOTION_DOT":"0.00002134","DECAY_DATE":null,"MEAN_ELEMENT_THEORY":"SGP4","LAUNCH_DATE":"2020-09-03","CLASSIFICATION_TYPE":"U","EPOCH":"2021-10-07T19:50:14.436672","MEAN_MOTION_DDOT":"0.0000000000000","REV_AT_EPOCH":"6134","TIME_SYSTEM":"UTC","MEAN_MOTION":"15.06400539","CENTER_NAME":"EARTH","TLE_LINE2":"2 46357  53.0563  41.5401 0001212 103.3221 256.7903 15.06400539 61341","ELEMENT_SET_NO":"999","PERIAPSIS":"546.373","PERIOD":"95.592","SEMIMAJOR_AXIS":"6925.347","INCLINATION":"53.0563","SITE":"AFETR","RA_OF_ASC_NODE":"41.5401","RCS_SIZE":"LARGE","OBJECT_TYPE":"PAYLOAD","NORAD_CAT_ID":"46357","BSTAR":"0.00016209000000","COUNTRY_CODE":"US","EPHEMERIS_TYPE":"0","GP_ID":"186511459"},{"ELEMENT_SET_NO":"999","PERIAPSIS":"545.985","PERIOD":"95.592","SEMIMAJOR_AXIS":"6925.363","INCLINATION":"53.0556","MEAN_MOTION":"15.06395140","CENTER_NAME":"EARTH","TLE_LINE2":"2 46358  53.0556  61.6271 0001796 101.4910 258.6281 15.06395140 61063","BSTAR":"-0.00000786700000","COUNTRY_CODE":"US","EPHEMERIS_TYPE":"0","GP_ID":"186511716","SITE":"AFETR","RA_OF_ASC_NODE":"61.6271","RCS_SIZE":"LARGE","NORAD_CAT_ID":"46358","OBJECT_TYPE":"PAYLOAD","OBJECT_ID":"2020-062AK","APOAPSIS":"548.472","ECCENTRICITY":"0.00017960","MEAN_ANOMALY":"258.6281","OBJECT_NAME":"STARLINK-1690","MEAN_ELEMENT_THEORY":"SGP4","LAUNCH_DATE":"2020-09-03","CLASSIFICATION_TYPE":"U","MEAN_MOTION_DDOT":"0.0000000000000","EPOCH":"2021-10-07T19:21:03.524256","TIME_SYSTEM":"UTC","REV_AT_EPOCH":"6106","TLE_LINE1":"1 46358U 20062AK  21280.80629079 -.00000399  00000-0 -78670-5 0  9996","ARG_OF_PERICENTER":"101.4910","REF_FRAME":"TEME","FILE":"3150302","DECAY_DATE":null,"MEAN_MOTION_DOT":"-0.00000399"},{"PERIOD":"95.589","PERIAPSIS":"545.678","ELEMENT_SET_NO":"999","INCLINATION":"53.0563","SEMIMAJOR_AXIS":"6925.214","MEAN_MOTION":"15.06443956","TLE_LINE2":"2 46359  53.0563  17.3127 0002023 105.8389 254.2823 15.06443956 61661","CENTER_NAME":"EARTH","BSTAR":"-0.00052272000000","GP_ID":"186510690","EPHEMERIS_TYPE":"0","COUNTRY_CODE":"US","SITE":"AFETR","OBJECT_TYPE":"PAYLOAD","NORAD_CAT_ID":"46359","RCS_SIZE":"LARGE","RA_OF_ASC_NODE":"17.3127","OBJECT_ID":"2020-062AL","APOAPSIS":"548.480","MEAN_ANOMALY":"254.2823","ECCENTRICITY":"0.00020230","OBJECT_NAME":"STARLINK-1707","CLASSIFICATION_TYPE":"U","LAUNCH_DATE":"2020-09-03","MEAN_ELEMENT_THEORY":"SGP4","TIME_SYSTEM":"UTC","REV_AT_EPOCH":"6166","EPOCH":"2021-10-07T15:41:25.954368","MEAN_MOTION_DDOT":"0.0000000000000","ARG_OF_PERICENTER":"105.8389","TLE_LINE1":"1 46359U 20062AL  21280.65377262 -.00008069  00000-0 -52272-3 0  9994","MEAN_MOTION_DOT":"-0.00008069","DECAY_DATE":null,"REF_FRAME":"TEME","FILE":"3150302"},{"APOAPSIS":"547.990","OBJECT_ID":"2020-062AM","OBJECT_NAME":"STARLINK-1713","MEAN_ANOMALY":"261.6605","ECCENTRICITY":"0.00011640","TIME_SYSTEM":"UTC","REV_AT_EPOCH":"6168","MEAN_MOTION_DDOT":"0.0000000000000","EPOCH":"2021-10-07T17:48:48.962304","CLASSIFICATION_TYPE":"U","LAUNCH_DATE":"2020-09-03","MEAN_ELEMENT_THEORY":"SGP4","DECAY_DATE":null,"MEAN_MOTION_DOT":"0.00001218","REF_FRAME":"TEME","FILE":"3150302","TLE_LINE1":"1 46360U 20062AM  21280.74223336  .00001218  00000-0  10065-3 0  9999","ARG_OF_PERICENTER":"98.4516","INCLINATION":"53.0556","SEMIMAJOR_AXIS":"6925.319","PERIAPSIS":"546.378","PERIOD":"95.592","ELEMENT_SET_NO":"999","TLE_LINE2":"2 46360  53.0556  16.9200 0001164  98.4516 261.6605 15.06409689 61683","CENTER_NAME":"EARTH","MEAN_MOTION":"15.06409689","GP_ID":"186511216","EPHEMERIS_TYPE":"0","COUNTRY_CODE":"US","BSTAR":"0.00010065000000","NORAD_CAT_ID":"46360","OBJECT_TYPE":"PAYLOAD","RA_OF_ASC_NODE":"16.9200","RCS_SIZE":"LARGE","SITE":"AFETR"},{"OBJECT_ID":"2020-062AN","APOAPSIS":"548.112","MEAN_ANOMALY":"251.6923","ECCENTRICITY":"0.00013520","OBJECT_NAME":"STARLINK-1722","LAUNCH_DATE":"2020-09-03","CLASSIFICATION_TYPE":"U","MEAN_ELEMENT_THEORY":"SGP4","TIME_SYSTEM":"UTC","REV_AT_EPOCH":"6166","EPOCH":"2021-10-07T15:30:49.245984","MEAN_MOTION_DDOT":"0.0000000000000","TLE_LINE1":"1 46361U 20062AN  21280.64640331 -.00002313  00000-0 -13637-3 0  9994","ARG_OF_PERICENTER":"108.4213","MEAN_MOTION_DOT":"-0.00002313","DECAY_DATE":null,"REF_FRAME":"TEME","FILE":"3150302","PERIAPSIS":"546.239","PERIOD":"95.591","ELEMENT_SET_NO":"999","INCLINATION":"53.0572","SEMIMAJOR_AXIS":"6925.311","MEAN_MOTION":"15.06412381","TLE_LINE2":"2 46361  53.0572  17.3484 0001352 108.4213 251.6923 15.06412381 61669","CENTER_NAME":"EARTH","BSTAR":"-0.00013637000000","GP_ID":"186510959","EPHEMERIS_TYPE":"0","COUNTRY_CODE":"US","SITE":"AFETR","NORAD_CAT_ID":"46361","OBJECT_TYPE":"PAYLOAD","RA_OF_ASC_NODE":"17.3484","RCS_SIZE":"LARGE"},{"COUNTRY_CODE":"US","EPHEMERIS_TYPE":"0","GP_ID":"186512217","BSTAR":"0.00011341000000","RCS_SIZE":"LARGE","RA_OF_ASC_NODE":"17.1432","OBJECT_TYPE":"PAYLOAD","NORAD_CAT_ID":"46362","SITE":"AFETR","SEMIMAJOR_AXIS":"6925.343","INCLINATION":"53.0548","ELEMENT_SET_NO":"999","PERIOD":"95.592","PERIAPSIS":"546.439","CENTER_NAME":"EARTH","TLE_LINE2":"2 46362  53.0548  17.1432 0001110 103.8709 256.2403 15.06401917 61673","MEAN_MOTION":"15.06401917","MEAN_MOTION_DDOT":"0.0000000000000","EPOCH":"2021-10-07T16:34:30.824256","TIME_SYSTEM":"UTC","REV_AT_EPOCH":"6167","MEAN_ELEMENT_THEORY":"SGP4","CLASSIFICATION_TYPE":"U","LAUNCH_DATE":"2020-09-03","REF_FRAME":"TEME","FILE":"3150302","DECAY_DATE":null,"MEAN_MOTION_DOT":"0.00001408","ARG_OF_PERICENTER":"103.8709","TLE_LINE1":"1 46362U 20062AP  21280.69063454  .00001408  00000-0  11341-3 0  9997","APOAPSIS":"547.976","OBJECT_ID":"2020-062AP","OBJECT_NAME":"STARLINK-1726","ECCENTRICITY":"0.00011100","MEAN_ANOMALY":"256.2403"},{"OBJECT_TYPE":"PAYLOAD","NORAD_CAT_ID":"46363","RA_OF_ASC_NODE":"16.8792","RCS_SIZE":"LARGE","SITE":"AFETR","GP_ID":"186511191","EPHEMERIS_TYPE":"0","COUNTRY_CODE":"US","BSTAR":"0.00010495000000","TLE_LINE2":"2 46363  53.0554  16.8792 0001267 109.8926 250.2200 15.06411156 61682","CENTER_NAME":"EARTH","MEAN_MOTION":"15.06411156","INCLINATION":"53.0554","SEMIMAJOR_AXIS":"6925.314","PERIAPSIS":"546.302","PERIOD":"95.591","ELEMENT_SET_NO":"999","MEAN_MOTION_DOT":"0.00001283","DECAY_DATE":null,"REF_FRAME":"TEME","FILE":"3150302","TLE_LINE1":"1 46363U 20062AQ  21280.74960901  .00001283  00000-0  10495-3 0  9997","ARG_OF_PERICENTER":"109.8926","REV_AT_EPOCH":"6168","TIME_SYSTEM":"UTC","EPOCH":"2021-10-07T17:59:26.218464","MEAN_MOTION_DDOT":"0.0000000000000","LAUNCH_DATE":"2020-09-03","CLASSIFICATION_TYPE":"U","MEAN_ELEMENT_THEORY":"SGP4","OBJECT_NAME":"STARLINK-1739","MEAN_ANOMALY":"250.2200","ECCENTRICITY":"0.00012670","APOAPSIS":"548.057","OBJECT_ID":"2020-062AQ"},{"COUNTRY_CODE":"US","GP_ID":"186510716","EPHEMERIS_TYPE":"0","BSTAR":"0.00014181000000","RA_OF_ASC_NODE":"357.4079","RCS_SIZE":"LARGE","OBJECT_TYPE":"PAYLOAD","NORAD_CAT_ID":"46364","SITE":"AFETR","SEMIMAJOR_AXIS":"6925.342","INCLINATION":"53.0567","ELEMENT_SET_NO":"999","PERIAPSIS":"542.529","PERIOD":"95.592","CENTER_NAME":"EARTH","TLE_LINE2":"2 46364  53.0567 357.4079 0006755  50.8514 309.3074 15.06402085 61949","MEAN_MOTION":"15.06402085","EPOCH":"2021-10-07T15:12:16.095168","MEAN_MOTION_DDOT":"0.0000000000000","REV_AT_EPOCH":"6194","TIME_SYSTEM":"UTC","MEAN_ELEMENT_THEORY":"SGP4","LAUNCH_DATE":"2020-09-03","CLASSIFICATION_TYPE":"U","REF_FRAME":"TEME","FILE":"3150302","MEAN_MOTION_DOT":"0.00001830","DECAY_DATE":null,"TLE_LINE1":"1 46364U 20062AR  21280.63351962  .00001830  00000-0  14181-3 0  9991","ARG_OF_PERICENTER":"50.8514","APOAPSIS":"551.885","OBJECT_ID":"2020-062AR","OBJECT_NAME":"STARLINK-1763","ECCENTRICITY":"0.00067550","MEAN_ANOMALY":"309.3074"},{"ARG_OF_PERICENTER":"110.6900","TLE_LINE1":"1 46365U 20062AS  21280.66115240  .00000502  00000-0  52593-4 0  9997","MEAN_MOTION_DOT":"0.00000502","DECAY_DATE":null,"REF_FRAME":"TEME","FILE":"3150302","CLASSIFICATION_TYPE":"U","LAUNCH_DATE":"2020-09-03","MEAN_ELEMENT_THEORY":"SGP4","REV_AT_EPOCH":"6166","TIME_SYSTEM":"UTC","MEAN_MOTION_DDOT":"0.0000000000000","EPOCH":"2021-10-07T15:52:03.567360","MEAN_ANOMALY":"249.4205","ECCENTRICITY":"0.00010850","OBJECT_NAME":"STARLINK-1550","OBJECT_ID":"2020-062AS","APOAPSIS":"547.965","SITE":"AFETR","NORAD_CAT_ID":"46365","OBJECT_TYPE":"PAYLOAD","RCS_SIZE":"LARGE","RA_OF_ASC_NODE":"17.2765","BSTAR":"0.00005259300000","GP_ID":"186511460","EPHEMERIS_TYPE":"0","COUNTRY_CODE":"US","MEAN_MOTION":"15.06400123","TLE_LINE2":"2 46365  53.0556  17.2765 0001085 110.6900 249.4205 15.06400123 61666","CENTER_NAME":"EARTH","PERIOD":"95.592","PERIAPSIS":"546.462","ELEMENT_SET_NO":"999","INCLINATION":"53.0556","SEMIMAJOR_AXIS":"6925.348"}];
